{"type": "FeatureCollection", "features": [{"type": "Feature", "geometry": {"type": "Point", "coordinates": [8.87853264565329, 45.98168945707192]}, "properties": {"index": 0, "id": "R1V_xbFQcAraYB0SizjoKg", "date": "2022-10", "route_dist_m": 0.0}}, {"type": "Feature", "geometry": {"type": "Point", "coordinates": [8.878641275702789, 45.98163485981302]}, "properties": {"index": 1, "id": "IN1sUr4j3uz9v1itgBUFnw", "date": "2022-10", "route_dist_m": 0.0}}, {"type": "Feature", "geometry": {"type": "Point", "coordinates": [8.878566820905137, 45.98157478970437]}, "properties": {"index": 2, "id": "Nw0wzRAwBtV7J2vOODEW9w", "date": "2022-10", "route_dist_m": 0.0}}, {"type": "Feature", "geometry": {"type": "Point", "coordinates": [8.878432515225219, 45.9817520286945]}, "properties": {"index": 3, "id": "FatLQx5eVlo_WOMd76rS3Q", "date": "2022-10", "route_dist_m": 7.7}}, {"type": "Feature", "geometry": {"type": "Point", "coordinates": [8.878332520449765, 45.98181532172617]}, "properties": {"index": 4, "id": "wFPrl4a0ckGoo-VyUnZdpQ", "date": "2022-10", "route_dist_m": 17.7}}, {"type": "Feature", "geometry": {"type": "Point", "coordinates": [8.878232849543167, 45.98187793062664]}, "properties": {"index": 5, "id": "g4aYrWKCWLH1osvGcky74Q", "date": "2022-10", "route_dist_m": 28.1}}, {"type": "Feature", "geometry": {"type": "Point", "coordinates": [8.878133430008102, 45.98193876301151]}, "properties": {"index": 6, "id": "B0aw3C8GMFfFeB1kEjv_Cw", "date": "2022-10", "route_dist_m": 38.1}}, {"type": "Feature", "geometry": {"type": "Point", "coordinates": [8.87803455446212, 45.98199559994922]}, "properties": {"index": 7, "id": "-yw5XC5qswUzo7gXWu1kMQ", "date": "2022-10", "route_dist_m": 48.0}}, {"type": "Feature", "geometry": {"type": "Point", "coordinates": [8.877934336681266, 45.98204785662866]}, "properties": {"index": 8, "id": "FV6kEpBjSHy-YMOJg7Eveg", "date": "2022-10", "route_dist_m": 57.5}}, {"type": "Feature", "geometry": {"type": "Point", "coordinates": [8.877834638801557, 45.98209575370144]}, "properties": {"index": 9, "id": "u-aX4645_W9nis74V86ijg", "date": "2022-10", "route_dist_m": 66.9}}, {"type": "Feature", "geometry": {"type": "Point", "coordinates": [8.87773531645906, 45.98214772077741]}, "properties": {"index": 10, "id": "8ZkOkK8xMedV35ZDln-3VQ", "date": "2022-10", "route_dist_m": 76.6}}, {"type": "Feature", "geometry": {"type": "Point", "coordinates": [8.877656061845679, 45.98221627585399]}, "properties": {"index": 11, "id": "sTOdjI8cYlB4ulDi2FDGBA", "date": "2022-10", "route_dist_m": 87.5}}, {"type": "Feature", "geometry": {"type": "Point", "coordinates": [8.877612775824863, 45.98229922631096]}, "properties": {"index": 12, "id": "qDmKeAIgcwIz6RMfibsGJg", "date": "2022-10", "route_dist_m": 97.9}}, {"type": "Feature", "geometry": {"type": "Point", "coordinates": [8.877590825140633, 45.98238790516936]}, "properties": {"index": 13, "id": "YlRwTiiRfJE7HucHgBvFGA", "date": "2022-10", "route_dist_m": 108.0}}, {"type": "Feature", "geometry": {"type": "Point", "coordinates": [8.877561213501835, 45.98247674290741]}, "properties": {"index": 14, "id": "aB5NIgdXb127OQcOMdiAog", "date": "2022-10", "route_dist_m": 117.9}}, {"type": "Feature", "geometry": {"type": "Point", "coordinates": [8.87751086691258, 45.98256492986304]}, "properties": {"index": 15, "id": "YGDEuQsX5eTmADuwUWyCSg", "date": "2022-10", "route_dist_m": 128.1}}, {"type": "Feature", "geometry": {"type": "Point", "coordinates": [8.877453546634161, 45.98265117231333]}, "properties": {"index": 16, "id": "TOhhtg3749KqhPyzoC-vKQ", "date": "2022-10", "route_dist_m": 138.6}}, {"type": "Feature", "geometry": {"type": "Point", "coordinates": [8.877398287873131, 45.98273454542635]}, "properties": {"index": 17, "id": "1xyHfwoYlwPW3k88hs3G3Q", "date": "2022-10", "route_dist_m": 148.8}}, {"type": "Feature", "geometry": {"type": "Point", "coordinates": [8.877347904108102, 45.98281687931429]}, "properties": {"index": 18, "id": "a6_SwSPyRBYlcveEA2llFA", "date": "2022-10", "route_dist_m": 158.8}}, {"type": "Feature", "geometry": {"type": "Point", "coordinates": [8.877301605382245, 45.9829013834144]}, "properties": {"index": 19, "id": "qVmdqYmDt6nnBohsrUKC4Q", "date": "2022-10", "route_dist_m": 168.8}}, {"type": "Feature", "geometry": {"type": "Point", "coordinates": [8.877259442315646, 45.98298563805242]}, "properties": {"index": 20, "id": "FZK_W5VIhAhWucqwaC91bQ", "date": "2022-10", "route_dist_m": 178.7}}, {"type": "Feature", "geometry": {"type": "Point", "coordinates": [8.87722063499428, 45.98306743476816]}, "properties": {"index": 21, "id": "Am5qItmb8e0_74uXfP7c9Q", "date": "2022-10", "route_dist_m": 188.3}}, {"type": "Feature", "geometry": {"type": "Point", "coordinates": [8.877180900316429, 45.98314798629584]}, "properties": {"index": 22, "id": "FEUxnfoHnySD-IbHrGdm3w", "date": "2022-10", "route_dist_m": 197.4}}, {"type": "Feature", "geometry": {"type": "Point", "coordinates": [8.877127952364694, 45.98322298078032]}, "properties": {"index": 23, "id": "rgAk-HMVi6SGg4VOPlexug", "date": "2022-10", "route_dist_m": 206.3}}, {"type": "Feature", "geometry": {"type": "Point", "coordinates": [8.877033591824876, 45.98327075430583]}, "properties": {"index": 24, "id": "z21mi6Huqy1wWfrpV6ds6A", "date": "2022-10", "route_dist_m": 213.7}}, {"type": "Feature", "geometry": {"type": "Point", "coordinates": [8.87691441457335, 45.98325289669267]}, "properties": {"index": 25, "id": "9OEmG5yb8DFpqfkg2Oo8xw", "date": "2022-10", "route_dist_m": 222.0}}, {"type": "Feature", "geometry": {"type": "Point", "coordinates": [8.876878803994549, 45.98316936774299]}, "properties": {"index": 26, "id": "Q-FrMZptK2YAK7mpPBSEdg", "date": "2022-10", "route_dist_m": 230.8}}, {"type": "Feature", "geometry": {"type": "Point", "coordinates": [8.876950778178335, 45.98309127807135]}, "properties": {"index": 27, "id": "iO8njvDfaiKXfHs_aNNdLw", "date": "2022-10", "route_dist_m": 241.3}}, {"type": "Feature", "geometry": {"type": "Point", "coordinates": [8.877032553554221, 45.98301930471567]}, "properties": {"index": 28, "id": "O5GcEvHbwy3G8NqHq1G2Yw", "date": "2022-10", "route_dist_m": 251.6}}, {"type": "Feature", "geometry": {"type": "Point", "coordinates": [8.877098135478482, 45.98293424722268]}, "properties": {"index": 29, "id": "r6QZu84bHlE_J8cjVNfoqQ", "date": "2022-10", "route_dist_m": 262.6}}, {"type": "Feature", "geometry": {"type": "Point", "coordinates": [8.877139120911847, 45.98284364270927]}, "properties": {"index": 30, "id": "qfUTJqinzDJFPQA5p_GX-w", "date": "2022-10", "route_dist_m": 273.3}}, {"type": "Feature", "geometry": {"type": "Point", "coordinates": [8.877167322087223, 45.98275659826034]}, "properties": {"index": 31, "id": "EMx8XJ54VZd4Qzr4nZgvGQ", "date": "2022-10", "route_dist_m": 283.2}}, {"type": "Feature", "geometry": {"type": "Point", "coordinates": [8.877189344204773, 45.98267215912685]}, "properties": {"index": 32, "id": "uKKhNplIJG8suuo_fUT3Jg", "date": "2022-10", "route_dist_m": 292.7}}, {"type": "Feature", "geometry": {"type": "Point", "coordinates": [8.877192843695907, 45.98258726249269]}, "properties": {"index": 33, "id": "dVnMtmT9GLXoo2jOevOVJw", "date": "2022-10", "route_dist_m": 302.5}}, {"type": "Feature", "geometry": {"type": "Point", "coordinates": [8.877162469499803, 45.98250098358569]}, "properties": {"index": 34, "id": "Yewnpf5P1Zmu6YJtxY3AEg", "date": "2022-10", "route_dist_m": 312.7}}, {"type": "Feature", "geometry": {"type": "Point", "coordinates": [8.877112030481612, 45.98241963819885]}, "properties": {"index": 35, "id": "EdSK6tlzJnX166q31miyrQ", "date": "2022-10", "route_dist_m": 322.5}}, {"type": "Feature", "geometry": {"type": "Point", "coordinates": [8.877060455791822, 45.98233867438998]}, "properties": {"index": 36, "id": "uRVsUsXUrDvf3SIzAIYZ-Q", "date": "2022-10", "route_dist_m": 332.2}}, {"type": "Feature", "geometry": {"type": "Point", "coordinates": [8.877034843807406, 45.9822507065948]}, "properties": {"index": 37, "id": "QK7EiY0z2-0i0gUeu6AXxQ", "date": "2022-10", "route_dist_m": 341.9}}, {"type": "Feature", "geometry": {"type": "Point", "coordinates": [8.877047219079813, 45.98216035980818]}, "properties": {"index": 38, "id": "rrSgGOcsu4wAfyY09Jac6Q", "date": "2022-10", "route_dist_m": 351.8}}, {"type": "Feature", "geometry": {"type": "Point", "coordinates": [8.877072853883233, 45.98207256525954]}, "properties": {"index": 39, "id": "5Bcu3NnfMy7yExvn1l1Eug", "date": "2022-10", "route_dist_m": 361.7}}, {"type": "Feature", "geometry": {"type": "Point", "coordinates": [8.877100089391917, 45.98198874528003]}, "properties": {"index": 40, "id": "B8tADYvQnB3LV0TeEetQ0g", "date": "2022-10", "route_dist_m": 371.2}}, {"type": "Feature", "geometry": {"type": "Point", "coordinates": [8.8771169557944, 45.98187089028364]}, "properties": {"index": 41, "id": "W2uemA0TOr54OE8x-M6LHg", "date": "2022-10", "route_dist_m": 384.8}}, {"type": "Feature", "geometry": {"type": "Point", "coordinates": [8.877039052676212, 45.98181182016343]}, "properties": {"index": 42, "id": "7PwHG2wu2dcc_15YWaQyYw", "date": "2022-10", "route_dist_m": 398.1}}, {"type": "Feature", "geometry": {"type": "Point", "coordinates": [8.87692151816305, 45.98183907430308]}, "properties": {"index": 43, "id": "U_6Zu18HVPXA5LkvnQ-txA", "date": "2022-10", "route_dist_m": 413.7}}, {"type": "Feature", "geometry": {"type": "Point", "coordinates": [8.876880881974774, 45.98192935681553]}, "properties": {"index": 44, "id": "IGTeNdakbfpLvsOtlpefBw", "date": "2022-10", "route_dist_m": 425.6}}, {"type": "Feature", "geometry": {"type": "Point", "coordinates": [8.87687108814258, 45.98202652912529]}, "properties": {"index": 45, "id": "hy5ypBGSgF0RgxqIc_8aPw", "date": "2022-10", "route_dist_m": 436.4}}, {"type": "Feature", "geometry": {"type": "Point", "coordinates": [8.876861696761763, 45.98212154733339]}, "properties": {"index": 46, "id": "jglX18WgqqXDZm5IqAJsYQ", "date": "2022-10", "route_dist_m": 446.9}}, {"type": "Feature", "geometry": {"type": "Point", "coordinates": [8.876852634871597, 45.98221675961936]}, "properties": {"index": 47, "id": "kJWnIJrnEcsXexIgQfK14w", "date": "2022-10", "route_dist_m": 457.5}}, {"type": "Feature", "geometry": {"type": "Point", "coordinates": [8.876841521253148, 45.98230942369891]}, "properties": {"index": 48, "id": "kAiHm1fcGZpR4x_4GZ_cLA", "date": "2022-10", "route_dist_m": 467.7}}, {"type": "Feature", "geometry": {"type": "Point", "coordinates": [8.876828681821259, 45.98239914810331]}, "properties": {"index": 49, "id": "d6lEhyVc2vquK2jZXfGndg", "date": "2022-10", "route_dist_m": 477.7}}, {"type": "Feature", "geometry": {"type": "Point", "coordinates": [8.876812926351198, 45.98248814860597]}, "properties": {"index": 50, "id": "tN_DhUMVLeypkDXvkcRiAg", "date": "2022-10", "route_dist_m": 487.5}}, {"type": "Feature", "geometry": {"type": "Point", "coordinates": [8.876790357441553, 45.98257629014959]}, "properties": {"index": 51, "id": "bjrbIw6lIjMf48WOO5jCXg", "date": "2022-10", "route_dist_m": 497.3}}, {"type": "Feature", "geometry": {"type": "Point", "coordinates": [8.876756530201774, 45.98266340719427]}, "properties": {"index": 52, "id": "booC5VqSeoACEzcYthFO8Q", "date": "2022-10", "route_dist_m": 507.0}}, {"type": "Feature", "geometry": {"type": "Point", "coordinates": [8.87670910800439, 45.98274690033261]}, "properties": {"index": 53, "id": "64mC-E_xQMq6oCKAg6uoog", "date": "2022-10", "route_dist_m": 516.8}}, {"type": "Feature", "geometry": {"type": "Point", "coordinates": [8.8766429167032, 45.9828219758499]}, "properties": {"index": 54, "id": "8rsWukTNJEsiUht9skWKNQ", "date": "2022-10", "route_dist_m": 526.3}}, {"type": "Feature", "geometry": {"type": "Point", "coordinates": [8.876562043803537, 45.9828876558345]}, "properties": {"index": 55, "id": "H9e8uCx5WuWd9XgSJDiOyg", "date": "2022-10", "route_dist_m": 535.5}}, {"type": "Feature", "geometry": {"type": "Point", "coordinates": [8.876409561727522, 45.98295972955657]}, "properties": {"index": 56, "id": "pXrTpIsyxuA6PEn2Lx_utA", "date": "2022-10", "route_dist_m": 549.2}}, {"type": "Feature", "geometry": {"type": "Point", "coordinates": [8.876224465092818, 45.98298281262674]}, "properties": {"index": 57, "id": "oG5atDSXA7i2KaEiVihYPA", "date": "2022-10", "route_dist_m": 563.0}}, {"type": "Feature", "geometry": {"type": "Point", "coordinates": [8.876095705899242, 45.98296899629838]}, "properties": {"index": 58, "id": "hT0fX4w7ygQZD8IHgFdjaA", "date": "2022-10", "route_dist_m": 572.8}}, {"type": "Feature", "geometry": {"type": "Point", "coordinates": [8.87596795205777, 45.98294778097337]}, "properties": {"index": 59, "id": "FmLBYwhaLEg4ZJ8aGTvAlA", "date": "2022-10", "route_dist_m": 583.0}}, {"type": "Feature", "geometry": {"type": "Point", "coordinates": [8.875837898953364, 45.98293699351058]}, "properties": {"index": 60, "id": "WZa2u0Sb0hvL7z9_rvvRgg", "date": "2022-10", "route_dist_m": 593.4}}, {"type": "Feature", "geometry": {"type": "Point", "coordinates": [8.87570719064776, 45.98293701802231]}, "properties": {"index": 61, "id": "ip59XdIoRz9eOsyXuBqSJQ", "date": "2022-10", "route_dist_m": 603.8}}, {"type": "Feature", "geometry": {"type": "Point", "coordinates": [8.875577988540927, 45.98293985300921]}, "properties": {"index": 62, "id": "H7SoFFgjBNc4p_WHsrP_VQ", "date": "2022-10", "route_dist_m": 613.8}}, {"type": "Feature", "geometry": {"type": "Point", "coordinates": [8.875449926254541, 45.98294289172104]}, "properties": {"index": 63, "id": "Ch7whVBYZXlrAOUuhO3ZTw", "date": "2022-10", "route_dist_m": 623.7}}, {"type": "Feature", "geometry": {"type": "Point", "coordinates": [8.875322901150223, 45.98294724023016]}, "properties": {"index": 64, "id": "c4uyWPOGlrbz98VHk3uYmw", "date": "2022-10", "route_dist_m": 633.5}}, {"type": "Feature", "geometry": {"type": "Point", "coordinates": [8.875198905623856, 45.98295296268438]}, "properties": {"index": 65, "id": "dLD3PpdKEc2Wh6cxB13ubQ", "date": "2022-10", "route_dist_m": 643.1}}, {"type": "Feature", "geometry": {"type": "Point", "coordinates": [8.875075567609764, 45.98295878010435]}, "properties": {"index": 66, "id": "NVV8juDlw64DTnC6M8msiQ", "date": "2022-10", "route_dist_m": 652.8}}, {"type": "Feature", "geometry": {"type": "Point", "coordinates": [8.874951790102676, 45.98297495343995]}, "properties": {"index": 67, "id": "eUVtKi9S3wj6oXUZMpG0qA", "date": "2022-10", "route_dist_m": 663.1}}, {"type": "Feature", "geometry": {"type": "Point", "coordinates": [8.874827978533073, 45.98300335436292]}, "properties": {"index": 68, "id": "WDGn1yMN6kLFeUvfC5ib9A", "date": "2022-10", "route_dist_m": 673.6}}, {"type": "Feature", "geometry": {"type": "Point", "coordinates": [8.874710946638181, 45.98304140152631]}, "properties": {"index": 69, "id": "SBfIofH1b10_n-V6Uc_-mg", "date": "2022-10", "route_dist_m": 683.6}}, {"type": "Feature", "geometry": {"type": "Point", "coordinates": [8.874596299306488, 45.98308277632496]}, "properties": {"index": 70, "id": "Cd5sLpsyaY4rcaj0ifOlUw", "date": "2022-10", "route_dist_m": 693.7}}, {"type": "Feature", "geometry": {"type": "Point", "coordinates": [8.874483219307507, 45.98312629806627]}, "properties": {"index": 71, "id": "wC8SxExysLc02sTuVhioSg", "date": "2022-10", "route_dist_m": 703.7}}, {"type": "Feature", "geometry": {"type": "Point", "coordinates": [8.874374204630692, 45.98317594449893]}, "properties": {"index": 72, "id": "KREJSr94nFSYeobPH9cTug", "date": "2022-10", "route_dist_m": 714.0}}, {"type": "Feature", "geometry": {"type": "Point", "coordinates": [8.874276899883531, 45.98323609709502]}, "properties": {"index": 73, "id": "2rDEEvwIInw1aJCRofKC8Q", "date": "2022-10", "route_dist_m": 724.5}}, {"type": "Feature", "geometry": {"type": "Point", "coordinates": [8.874185265944138, 45.98330005307326]}, "properties": {"index": 74, "id": "L9GYUYt-DHt_pbO1MIkCoA", "date": "2022-10", "route_dist_m": 734.5}}, {"type": "Feature", "geometry": {"type": "Point", "coordinates": [8.874089394199418, 45.98336192393048]}, "properties": {"index": 75, "id": "MhoDXDcDucPI8jifpnaHGw", "date": "2022-10", "route_dist_m": 744.4}}, {"type": "Feature", "geometry": {"type": "Point", "coordinates": [8.873986345514357, 45.98341718066299]}, "properties": {"index": 76, "id": "phvhQs4Q7k0Krjv84WKB1Q", "date": "2022-10", "route_dist_m": 754.4}}, {"type": "Feature", "geometry": {"type": "Point", "coordinates": [8.873879614516738, 45.98346811274513]}, "properties": {"index": 77, "id": "5Sv3cB22RyFtsqzpACsMWQ", "date": "2022-10", "route_dist_m": 764.2}}, {"type": "Feature", "geometry": {"type": "Point", "coordinates": [8.87377225641985, 45.98351675113827]}, "properties": {"index": 78, "id": "5wWlbTdEc1rHcIWJFMTeSg", "date": "2022-10", "route_dist_m": 774.1}}, {"type": "Feature", "geometry": {"type": "Point", "coordinates": [8.87366484996875, 45.98356466118662]}, "properties": {"index": 79, "id": "Y97wy0inTF8kxZb1epvMag", "date": "2022-10", "route_dist_m": 783.9}}, {"type": "Feature", "geometry": {"type": "Point", "coordinates": [8.873555112520426, 45.98361084969358]}, "properties": {"index": 80, "id": "Vu4r9ufWEGB1TmUv34FJiw", "date": "2022-10", "route_dist_m": 793.7}}, {"type": "Feature", "geometry": {"type": "Point", "coordinates": [8.873435937117351, 45.98364576882992]}, "properties": {"index": 81, "id": "xb6knaIb4REgaBo-rjBM0g", "date": "2022-10", "route_dist_m": 803.4}}, {"type": "Feature", "geometry": {"type": "Point", "coordinates": [8.873309199267375, 45.98366107329311]}, "properties": {"index": 82, "id": "YVLPl4eQY8Fh19-jzX_VNg", "date": "2022-10", "route_dist_m": 812.8}}, {"type": "Feature", "geometry": {"type": "Point", "coordinates": [8.873185458622176, 45.98366530948348]}, "properties": {"index": 83, "id": "BWBHB35JLvwYfqQ0wYe2_w", "date": "2022-10", "route_dist_m": 822.3}}, {"type": "Feature", "geometry": {"type": "Point", "coordinates": [8.873064657220063, 45.9836669004862]}, "properties": {"index": 84, "id": "U7IuU3-NswS_-JoElpn25g", "date": "2022-10", "route_dist_m": 831.7}}, {"type": "Feature", "geometry": {"type": "Point", "coordinates": [8.872943172878635, 45.98366773938351]}, "properties": {"index": 85, "id": "4h1FBQrdrp6XJzjXKgDiuQ", "date": "2022-10", "route_dist_m": 841.0}}, {"type": "Feature", "geometry": {"type": "Point", "coordinates": [8.872761255808578, 45.98366941257476]}, "properties": {"index": 86, "id": "zK9m1uoOn8lgPBpdaGmeew", "date": "2022-10", "route_dist_m": 855.0}}, {"type": "Feature", "geometry": {"type": "Point", "coordinates": [8.872579578907542, 45.98365291196934]}, "properties": {"index": 87, "id": "L6zwmPvtn0WjOJ1AlVATPA", "date": "2022-10", "route_dist_m": 868.8}}, {"type": "Feature", "geometry": {"type": "Point", "coordinates": [8.872450269719616, 45.98361951531319]}, "properties": {"index": 88, "id": "LCMx439b8gXtYnt2h2g9zQ", "date": "2022-10", "route_dist_m": 879.2}}, {"type": "Feature", "geometry": {"type": "Point", "coordinates": [8.872330074675615, 45.98357654985168]}, "properties": {"index": 89, "id": "C4OvdfxUzE4uNtkXobwPOQ", "date": "2022-10", "route_dist_m": 889.5}}, {"type": "Feature", "geometry": {"type": "Point", "coordinates": [8.872215976734218, 45.98353903828653]}, "properties": {"index": 90, "id": "798cxyrgx_ZVgK9wLwK9fA", "date": "2022-10", "route_dist_m": 899.4}}, {"type": "Feature", "geometry": {"type": "Point", "coordinates": [8.872092771536213, 45.98352288068791]}, "properties": {"index": 91, "id": "gUASh8SrTYnwAROxmP7LCg", "date": "2022-10", "route_dist_m": 909.8}}, {"type": "Feature", "geometry": {"type": "Point", "coordinates": [8.871969243846868, 45.98354730337926]}, "properties": {"index": 92, "id": "jJHETFlWKXTDPald9E5mNg", "date": "2022-10", "route_dist_m": 921.7}}, {"type": "Feature", "geometry": {"type": "Point", "coordinates": [8.87186932132093, 45.98360194830396]}, "properties": {"index": 93, "id": "6u0EwSy3Hdr4tRrfRqwB2Q", "date": "2022-10", "route_dist_m": 931.9}}, {"type": "Feature", "geometry": {"type": "Point", "coordinates": [8.8717709378761, 45.9836649648716]}, "properties": {"index": 94, "id": "-OdXcrNjewyETjxp_etomQ", "date": "2022-10", "route_dist_m": 942.2}}, {"type": "Feature", "geometry": {"type": "Point", "coordinates": [8.871663770931965, 45.98371622171828]}, "properties": {"index": 95, "id": "KIva2AoYvoz0z0EfAdVC0g", "date": "2022-10", "route_dist_m": 951.7}}, {"type": "Feature", "geometry": {"type": "Point", "coordinates": [8.8715444737088, 45.98375246599939]}, "properties": {"index": 96, "id": "i9-cPGO0ox4ra1CFAWlAIA", "date": "2022-10", "route_dist_m": 961.7}}, {"type": "Feature", "geometry": {"type": "Point", "coordinates": [8.871418993987692, 45.98377264810657]}, "properties": {"index": 97, "id": "r4Uy0XTjxrxGRhLPIbORug", "date": "2022-10", "route_dist_m": 971.3}}, {"type": "Feature", "geometry": {"type": "Point", "coordinates": [8.87129000526279, 45.98378446560041]}, "properties": {"index": 98, "id": "IAhc_vfHzrc_-12bn0WwUA", "date": "2022-10", "route_dist_m": 981.4}}, {"type": "Feature", "geometry": {"type": "Point", "coordinates": [8.871163257030869, 45.9838011593278]}, "properties": {"index": 99, "id": "0vkuIf02T5TSyxm6Ztx0Wg", "date": "2022-10", "route_dist_m": 991.3}}, {"type": "Feature", "geometry": {"type": "Point", "coordinates": [8.871040475018054, 45.98382940274761]}, "properties": {"index": 100, "id": "3i_cQ0FNp4t_C4wTaqmgHw", "date": "2022-10", "route_dist_m": 1001.8}}, {"type": "Feature", "geometry": {"type": "Point", "coordinates": [8.870851200084095, 45.98373545573715]}, "properties": {"index": 101, "id": "fuVKVj7SVOm_T1wxU_FldQ", "date": "2022-10", "route_dist_m": 1009.0}}, {"type": "Feature", "geometry": {"type": "Point", "coordinates": [8.87092398091223, 45.98386945404232]}, "properties": {"index": 102, "id": "Fqwgeb4FR5GQDysUpJIwaQ", "date": "2022-10", "route_dist_m": 1012.2}}, {"type": "Feature", "geometry": {"type": "Point", "coordinates": [8.870764775187748, 45.98379973495351]}, "properties": {"index": 103, "id": "jDuSENHJDibTHRoaQuuw3Q", "date": "2022-10", "route_dist_m": 1018.5}}, {"type": "Feature", "geometry": {"type": "Point", "coordinates": [8.870814340143939, 45.983917096478]}, "properties": {"index": 104, "id": "h0q46P4nKYdGm2AQB_BEJw", "date": "2022-10", "route_dist_m": 1022.2}}, {"type": "Feature", "geometry": {"type": "Point", "coordinates": [8.870666045539469, 45.98385992268507]}, "properties": {"index": 105, "id": "l99iQVGprhpvZXYnFsGubw", "date": "2022-10", "route_dist_m": 1028.5}}, {"type": "Feature", "geometry": {"type": "Point", "coordinates": [8.870708795501109, 45.98396522463467]}, "properties": {"index": 106, "id": "h5FbC9zqtTi-auCGfKJNXA", "date": "2022-10", "route_dist_m": 1032.0}}, {"type": "Feature", "geometry": {"type": "Point", "coordinates": [8.870604103583945, 45.98401321301574]}, "properties": {"index": 107, "id": "Fx52NKtVbhyYJLQqm0nEuA", "date": "2022-10", "route_dist_m": 1041.7}}, {"type": "Feature", "geometry": {"type": "Point", "coordinates": [8.87049834608984, 45.98406238250929]}, "properties": {"index": 108, "id": "8EJ6P5gqA8bAF6prBSCJbQ", "date": "2022-10", "route_dist_m": 1051.5}}, {"type": "Feature", "geometry": {"type": "Point", "coordinates": [8.870394201354426, 45.98411040129057]}, "properties": {"index": 109, "id": "UlEXksJADqN_DTPDj6BGLQ", "date": "2022-10", "route_dist_m": 1061.2}}, {"type": "Feature", "geometry": {"type": "Point", "coordinates": [8.870293012071116, 45.98416214260259]}, "properties": {"index": 110, "id": "xX4VyrnTwdcY5ZVuWG86cg", "date": "2022-10", "route_dist_m": 1070.8}}, {"type": "Feature", "geometry": {"type": "Point", "coordinates": [8.870199489933421, 45.98422580403707]}, "properties": {"index": 111, "id": "IZcHG7Yp6TrAkJYK9ui8nw", "date": "2022-10", "route_dist_m": 1081.7}}, {"type": "Feature", "geometry": {"type": "Point", "coordinates": [8.870044098354105, 45.98423316386867]}, "properties": {"index": 112, "id": "PsxyH04kLf9p-WtL7cxWlg", "date": "2022-10", "route_dist_m": 1089.7}}, {"type": "Feature", "geometry": {"type": "Point", "coordinates": [8.870120142813123, 45.9842952413287]}, "properties": {"index": 113, "id": "OSTxPNlSguNd1g7s_z2zWQ", "date": "2022-10", "route_dist_m": 1091.8}}, {"type": "Feature", "geometry": {"type": "Point", "coordinates": [8.869910871097943, 45.98422796067258]}, "properties": {"index": 114, "id": "RA6YfjwVlWHgfnZ5xVFRQA", "date": "2022-10", "route_dist_m": 1094.0}}, {"type": "Feature", "geometry": {"type": "Point", "coordinates": [8.870044248397509, 45.98437831843111]}, "properties": {"index": 115, "id": "DKP21IMlbu8fMP_2Upu7Ng", "date": "2022-10", "route_dist_m": 1102.9}}, {"type": "Feature", "geometry": {"type": "Point", "coordinates": [8.869780590219177, 45.98473913955465]}, "properties": {"index": 116, "id": "dfR64u9Lf4VCfdWfCDqv8w", "date": "2014-07", "route_dist_m": 1148.0}}, {"type": "Feature", "geometry": {"type": "Point", "coordinates": [8.869775006696162, 45.98474250320714]}, "properties": {"index": 117, "id": "i5ivGHdm4jfrJAXyugQoXg", "date": "2013-09", "route_dist_m": 1148.5}}, {"type": "Feature", "geometry": {"type": "Point", "coordinates": [8.86980069465327, 45.98475902113964]}, "properties": {"index": 118, "id": "ZzSupAfK_3XRTrvQ1_-w3w", "date": "2022-10", "route_dist_m": 1149.3}}, {"type": "Feature", "geometry": {"type": "Point", "coordinates": [8.869750580465212, 45.9848414060596]}, "properties": {"index": 119, "id": "4z-AH_DZGrKIjggoL_37mQ", "date": "2022-10", "route_dist_m": 1159.2}}, {"type": "Feature", "geometry": {"type": "Point", "coordinates": [8.869699240818225, 45.98492388664677]}, "properties": {"index": 120, "id": "mzt4JvcpgJpqkScU0WAq0w", "date": "2022-10", "route_dist_m": 1169.2}}, {"type": "Feature", "geometry": {"type": "Point", "coordinates": [8.869647765287079, 45.98500564587]}, "properties": {"index": 121, "id": "8cDahYkfJNW0FP0PByjkVw", "date": "2022-10", "route_dist_m": 1179.2}}, {"type": "Feature", "geometry": {"type": "Point", "coordinates": [8.869632418105489, 45.98502712082401]}, "properties": {"index": 122, "id": "wDdnjE_YzjFyRV1-rK7abw", "date": "2022-10", "route_dist_m": 1181.8}}, {"type": "Feature", "geometry": {"type": "Point", "coordinates": [8.86959571804122, 45.98508701053764]}, "properties": {"index": 123, "id": "2oFOnaxEzSp2L6S73RX-Qw", "date": "2022-10", "route_dist_m": 1189.0}}, {"type": "Feature", "geometry": {"type": "Point", "coordinates": [8.86954425562113, 45.98516737801394]}, "properties": {"index": 124, "id": "3BckAWy-oM4SZZqftZ65DA", "date": "2022-10", "route_dist_m": 1198.9}}, {"type": "Feature", "geometry": {"type": "Point", "coordinates": [8.869492336587744, 45.98524829364045]}, "properties": {"index": 125, "id": "22rnvNl102ryteamWiIW6Q", "date": "2022-10", "route_dist_m": 1208.7}}, {"type": "Feature", "geometry": {"type": "Point", "coordinates": [8.869440314514978, 45.98533031550266]}, "properties": {"index": 126, "id": "mM_w5N0QVdfNylgdjOhMDg", "date": "2022-10", "route_dist_m": 1218.5}}, {"type": "Feature", "geometry": {"type": "Point", "coordinates": [8.8693884707637, 45.98541290921689]}, "properties": {"index": 127, "id": "dmyh2MJ6aT68iNPl6bPTjQ", "date": "2022-10", "route_dist_m": 1228.5}}, {"type": "Feature", "geometry": {"type": "Point", "coordinates": [8.869186230213435, 45.98535781506369]}, "properties": {"index": 128, "id": "eZ1TMU4VfbCznLq2Vny5BA", "date": "2022-10", "route_dist_m": 1228.7}}, {"type": "Feature", "geometry": {"type": "Point", "coordinates": [8.869224822373267, 45.98544206845251]}, "properties": {"index": 129, "id": "40Q9h2RTxzKcehIBvaUXCw", "date": "2022-10", "route_dist_m": 1236.2}}, {"type": "Feature", "geometry": {"type": "Point", "coordinates": [8.86930710240006, 45.98548536008459]}, "properties": {"index": 130, "id": "RfgiBqg8IoFslRm0eWKmKg", "date": "2022-10", "route_dist_m": 1238.3}}, {"type": "Feature", "geometry": {"type": "Point", "coordinates": [8.869227221515045, 45.98552841213138]}, "properties": {"index": 131, "id": "M0EKho36o--UE2l1R81q8g", "date": "2022-10", "route_dist_m": 1244.4}}, {"type": "Feature", "geometry": {"type": "Point", "coordinates": [8.869294433320007, 45.98558861838406]}, "properties": {"index": 132, "id": "2indaLw5Q6jE-QEXXNajYw", "date": "2022-10", "route_dist_m": 1249.4}}, {"type": "Feature", "geometry": {"type": "Point", "coordinates": [8.869181503831062, 45.98561426192333]}, "properties": {"index": 133, "id": "C6fJRdVoz0-yZDgMStvDOQ", "date": "2022-10", "route_dist_m": 1254.5}}, {"type": "Feature", "geometry": {"type": "Point", "coordinates": [8.869180908709579, 45.98561723661914]}, "properties": {"index": 134, "id": "iFE30492VnBlRYyYwYn95Q", "date": "2013-09", "route_dist_m": 1254.9}}, {"type": "Feature", "geometry": {"type": "Point", "coordinates": [8.869418367888919, 45.98694406893284]}, "properties": {"index": 135, "id": "h_BqAutAWDcLrJNCZoPXWw", "date": "2022-10", "route_dist_m": 1401.7}}, {"type": "Feature", "geometry": {"type": "Point", "coordinates": [8.869420484659505, 45.98703439066654]}, "properties": {"index": 136, "id": "WmzI4RnqgkwnQX4cm45PFg", "date": "2022-10", "route_dist_m": 1411.7}}, {"type": "Feature", "geometry": {"type": "Point", "coordinates": [8.869425837553917, 45.98712043369592]}, "properties": {"index": 137, "id": "i1pOFO0aUSeEZPP3zFDikQ", "date": "2022-10", "route_dist_m": 1421.2}}, {"type": "Feature", "geometry": {"type": "Point", "coordinates": [8.869432835036747, 45.98721059480183]}, "properties": {"index": 138, "id": "PwGZpBzzxyIAQInRhzAW4A", "date": "2022-10", "route_dist_m": 1431.2}}, {"type": "Feature", "geometry": {"type": "Point", "coordinates": [8.86944375706601, 45.98729810733317]}, "properties": {"index": 139, "id": "2mscz3tB_Bq3doVNq6y-ig", "date": "2022-10", "route_dist_m": 1440.9}}, {"type": "Feature", "geometry": {"type": "Point", "coordinates": [8.86947692715047, 45.98738307984384]}, "properties": {"index": 140, "id": "utQEA2RrrwuwerRxpAd9QQ", "date": "2022-10", "route_dist_m": 1450.4}}, {"type": "Feature", "geometry": {"type": "Point", "coordinates": [8.869479261487667, 45.98746950530902]}, "properties": {"index": 141, "id": "dtP7ZhLK6oD3Q1HPaHTpxA", "date": "2022-10", "route_dist_m": 1459.8}}, {"type": "Feature", "geometry": {"type": "Point", "coordinates": [8.869456105802337, 45.98755813823734]}, "properties": {"index": 142, "id": "Flzp8UYXcS854BnRTr7SPA", "date": "2022-10", "route_dist_m": 1469.4}}, {"type": "Feature", "geometry": {"type": "Point", "coordinates": [8.86941306801355, 45.98764597895541]}, "properties": {"index": 143, "id": "jWTvn1K1HSR1mrVav9q_yw", "date": "2022-10", "route_dist_m": 1479.2}}, {"type": "Feature", "geometry": {"type": "Point", "coordinates": [8.869347814604877, 45.98772354560371]}, "properties": {"index": 144, "id": "ixwo-sacnXsijnXLIniKBQ", "date": "2022-10", "route_dist_m": 1489.0}}, {"type": "Feature", "geometry": {"type": "Point", "coordinates": [8.869259281270688, 45.98778857834137]}, "properties": {"index": 145, "id": "cDY_jWMXpdtLSNmT6eKwcw", "date": "2022-10", "route_dist_m": 1498.5}}, {"type": "Feature", "geometry": {"type": "Point", "coordinates": [8.869161827726336, 45.98784456962193]}, "properties": {"index": 146, "id": "9OjNT14Pm4lVl-rV_EBX6Q", "date": "2022-10", "route_dist_m": 1508.0}}, {"type": "Feature", "geometry": {"type": "Point", "coordinates": [8.869043576687995, 45.98787846227874]}, "properties": {"index": 147, "id": "rNufuaGwWNKixxKw8cT16g", "date": "2022-10", "route_dist_m": 1517.6}}, {"type": "Feature", "geometry": {"type": "Point", "coordinates": [8.868925609185501, 45.98791584682915]}, "properties": {"index": 148, "id": "WBL3yNmgD8G5NwEsbV84FQ", "date": "2022-10", "route_dist_m": 1527.6}}, {"type": "Feature", "geometry": {"type": "Point", "coordinates": [8.868804644883767, 45.98794995082252]}, "properties": {"index": 149, "id": "-oxW4dJik7rOmANeSWmqEA", "date": "2022-10", "route_dist_m": 1537.6}}, {"type": "Feature", "geometry": {"type": "Point", "coordinates": [8.868683862243397, 45.98798147815468]}, "properties": {"index": 150, "id": "l6lEOfis7I66UCjzrNYMHw", "date": "2022-10", "route_dist_m": 1547.6}}, {"type": "Feature", "geometry": {"type": "Point", "coordinates": [8.868570088156504, 45.98800989652656]}, "properties": {"index": 151, "id": "pvU30FTAR--MjzhOvSp6YA", "date": "2022-10", "route_dist_m": 1557.0}}, {"type": "Feature", "geometry": {"type": "Point", "coordinates": [8.86844261888924, 45.98803608810758]}, "properties": {"index": 152, "id": "NrsWofiKdXRwzGFchqPncg", "date": "2022-10", "route_dist_m": 1567.3}}, {"type": "Feature", "geometry": {"type": "Point", "coordinates": [8.868317706718658, 45.98806156769989]}, "properties": {"index": 153, "id": "YR_LSJ8r8DlfrfCW4dvZig", "date": "2022-10", "route_dist_m": 1577.3}}, {"type": "Feature", "geometry": {"type": "Point", "coordinates": [8.86819133774049, 45.9880886981695]}, "properties": {"index": 154, "id": "IQvhb5nNkElCWgxaRR0WQA", "date": "2022-10", "route_dist_m": 1587.5}}, {"type": "Feature", "geometry": {"type": "Point", "coordinates": [8.868062784218942, 45.98811658450964]}, "properties": {"index": 155, "id": "3Y6-ZxqkmAI4IxbChXoJzw", "date": "2022-10", "route_dist_m": 1597.9}}, {"type": "Feature", "geometry": {"type": "Point", "coordinates": [8.867942837617175, 45.98814877801578]}, "properties": {"index": 156, "id": "VFNpZmfWVP7OT1c9p0ls9Q", "date": "2022-10", "route_dist_m": 1607.9}}, {"type": "Feature", "geometry": {"type": "Point", "coordinates": [8.867820303007116, 45.98818014822075]}, "properties": {"index": 157, "id": "chP93dbrtP78o6_UzNOCwA", "date": "2022-10", "route_dist_m": 1618.0}}, {"type": "Feature", "geometry": {"type": "Point", "coordinates": [8.867699908402294, 45.98821061934995]}, "properties": {"index": 158, "id": "_60W5CX901qVJ3J-gHUVgA", "date": "2022-10", "route_dist_m": 1627.9}}, {"type": "Feature", "geometry": {"type": "Point", "coordinates": [8.867589752555212, 45.98824373304695]}, "properties": {"index": 159, "id": "7Rcub2doRi02WrZdExnB8Q", "date": "2022-10", "route_dist_m": 1637.1}}, {"type": "Feature", "geometry": {"type": "Point", "coordinates": [8.86748230935075, 45.98829501115658]}, "properties": {"index": 160, "id": "dQsoOW7hnEtvu9_hfkkZ3A", "date": "2022-10", "route_dist_m": 1647.2}}, {"type": "Feature", "geometry": {"type": "Point", "coordinates": [8.867419870621708, 45.98837902020276]}, "properties": {"index": 161, "id": "twnwqZV8821N04XryLWZAw", "date": "2022-10", "route_dist_m": 1657.5}}, {"type": "Feature", "geometry": {"type": "Point", "coordinates": [8.86741752180066, 45.988474011973]}, "properties": {"index": 162, "id": "auALtYlrzGzDLryIToFocA", "date": "2022-10", "route_dist_m": 1667.7}}, {"type": "Feature", "geometry": {"type": "Point", "coordinates": [8.867435415014171, 45.98856779191335]}, "properties": {"index": 163, "id": "Y32e54o-W4S0j-Jh-XgirA", "date": "2022-10", "route_dist_m": 1678.1}}, {"type": "Feature", "geometry": {"type": "Point", "coordinates": [8.867460389099325, 45.9886595557773]}, "properties": {"index": 164, "id": "HXRDQ1NCHGPTXpx7cx9Pzw", "date": "2022-10", "route_dist_m": 1688.5}}, {"type": "Feature", "geometry": {"type": "Point", "coordinates": [8.867482950088124, 45.9887467491774]}, "properties": {"index": 165, "id": "Ik4pfd-RmAGaY4jjRgvMrA", "date": "2022-10", "route_dist_m": 1698.3}}, {"type": "Feature", "geometry": {"type": "Point", "coordinates": [8.867504417992109, 45.98883417437956]}, "properties": {"index": 166, "id": "eagykOFQqBAnvFuCavDsZA", "date": "2022-10", "route_dist_m": 1708.1}}, {"type": "Feature", "geometry": {"type": "Point", "coordinates": [8.867525424322444, 45.98892126966727]}, "properties": {"index": 167, "id": "zIlz8kCMz_Fg6TOPxAtsug", "date": "2022-10", "route_dist_m": 1717.8}}, {"type": "Feature", "geometry": {"type": "Point", "coordinates": [8.867547724782263, 45.98900877670852]}, "properties": {"index": 168, "id": "2QNcK7MW9Xg8i7dE_f0W5Q", "date": "2022-10", "route_dist_m": 1727.7}}, {"type": "Feature", "geometry": {"type": "Point", "coordinates": [8.86755888447449, 45.98905227330898]}, "properties": {"index": 169, "id": "_w6RAVfIltR7y4Nbwxm0hg", "date": "2022-10", "route_dist_m": 1732.5}}, {"type": "Feature", "geometry": {"type": "Point", "coordinates": [8.867573494748825, 45.98913869624506]}, "properties": {"index": 170, "id": "lfLfwyuMySmSwUl8GTGOQA", "date": "2022-10", "route_dist_m": 1742.3}}, {"type": "Feature", "geometry": {"type": "Point", "coordinates": [8.867557651079993, 45.98922463828484]}, "properties": {"index": 171, "id": "2eYfuGnUnlC3bHsD4Z6SBA", "date": "2022-10", "route_dist_m": 1752.4}}, {"type": "Feature", "geometry": {"type": "Point", "coordinates": [8.867496643253544, 45.98930289997706]}, "properties": {"index": 172, "id": "NM8q_XywuAj3eNGWLD8nxw", "date": "2022-10", "route_dist_m": 1763.1}}, {"type": "Feature", "geometry": {"type": "Point", "coordinates": [8.867397580679176, 45.98936150575852]}, "properties": {"index": 173, "id": "8seRLCEOT43hBdDXF3YOpQ", "date": "2022-10", "route_dist_m": 1773.7}}, {"type": "Feature", "geometry": {"type": "Point", "coordinates": [8.867284519485171, 45.98939997111205]}, "properties": {"index": 174, "id": "gH43pogDtf22wO3RR_pY4A", "date": "2022-10", "route_dist_m": 1783.6}}, {"type": "Feature", "geometry": {"type": "Point", "coordinates": [8.867171881837905, 45.98943232668597]}, "properties": {"index": 175, "id": "Ujcka9E0fyfYIHZieWjm8w", "date": "2022-10", "route_dist_m": 1793.0}}, {"type": "Feature", "geometry": {"type": "Point", "coordinates": [8.867052070713697, 45.98946956093774]}, "properties": {"index": 176, "id": "PW5NkTq6MSn8GD2uHaYHTQ", "date": "2022-10", "route_dist_m": 1803.1}}, {"type": "Feature", "geometry": {"type": "Point", "coordinates": [8.866927886902083, 45.98951145551406]}, "properties": {"index": 177, "id": "E2A-WdeySIZtfNBH0OUxqA", "date": "2022-10", "route_dist_m": 1813.8}}, {"type": "Feature", "geometry": {"type": "Point", "coordinates": [8.86680903692184, 45.98955205562098]}, "properties": {"index": 178, "id": "7R8rNiEg7VQ568YysYaNOg", "date": "2022-10", "route_dist_m": 1824.0}}, {"type": "Feature", "geometry": {"type": "Point", "coordinates": [8.866751443905667, 45.98957118784288]}, "properties": {"index": 179, "id": "B1Tjs8xnXjy3Aul7OCsJ8A", "date": "2022-10", "route_dist_m": 1828.9}}, {"type": "Feature", "geometry": {"type": "Point", "coordinates": [8.866633396862545, 45.9896068931406]}, "properties": {"index": 180, "id": "fzl3PcsyivbaVsSa4r_FrQ", "date": "2022-10", "route_dist_m": 1838.8}}, {"type": "Feature", "geometry": {"type": "Point", "coordinates": [8.866517778088797, 45.98963860196055]}, "properties": {"index": 181, "id": "k9Krw2JJCbpMbXXcdNWBcQ", "date": "2022-10", "route_dist_m": 1848.4}}, {"type": "Feature", "geometry": {"type": "Point", "coordinates": [8.86640755679453, 45.9896723791769]}, "properties": {"index": 182, "id": "e6ao781jTAb95FSkNgJLMA", "date": "2022-10", "route_dist_m": 1858.2}}, {"type": "Feature", "geometry": {"type": "Point", "coordinates": [8.866330736674659, 45.98973503432157]}, "properties": {"index": 183, "id": "tzksr0N3KXBrwgBk0a9ubw", "date": "2022-10", "route_dist_m": 1868.3}}, {"type": "Feature", "geometry": {"type": "Point", "coordinates": [8.86634813599011, 45.98982351068211]}, "properties": {"index": 184, "id": "_zWvO4U3yEIwrI_5py79Ig", "date": "2022-10", "route_dist_m": 1880.8}}, {"type": "Feature", "geometry": {"type": "Point", "coordinates": [8.866460538139417, 45.98987741945299]}, "properties": {"index": 185, "id": "buikqPo8dP47Mr1FHzhARw", "date": "2022-10", "route_dist_m": 1892.8}}, {"type": "Feature", "geometry": {"type": "Point", "coordinates": [8.866585365531394, 45.98991110446755]}, "properties": {"index": 186, "id": "wwE76x-ELesAmqaGYThhcg", "date": "2022-10", "route_dist_m": 1903.1}}, {"type": "Feature", "geometry": {"type": "Point", "coordinates": [8.866701773749096, 45.98994625103768]}, "properties": {"index": 187, "id": "KHunUL2AZ6jRqLeNst15fg", "date": "2022-10", "route_dist_m": 1912.9}}, {"type": "Feature", "geometry": {"type": "Point", "coordinates": [8.86681824088127, 45.9899838821983]}, "properties": {"index": 188, "id": "jqwZnyogeWs8LjmcBPXgnw", "date": "2022-10", "route_dist_m": 1922.8}}, {"type": "Feature", "geometry": {"type": "Point", "coordinates": [8.86692953953237, 45.99002850542853]}, "properties": {"index": 189, "id": "QXFSa7gGQVuNUPPNjkgpnA", "date": "2022-10", "route_dist_m": 1932.5}}, {"type": "Feature", "geometry": {"type": "Point", "coordinates": [8.867026225586413, 45.99008605517591]}, "properties": {"index": 190, "id": "HiE6lcVYHKRd-vl5NjLOHA", "date": "2022-10", "route_dist_m": 1942.2}}, {"type": "Feature", "geometry": {"type": "Point", "coordinates": [8.867097941688288, 45.99015982822991]}, "properties": {"index": 191, "id": "9ekEH1sa8xBe4Cn4UfCj1Q", "date": "2022-10", "route_dist_m": 1951.7}}, {"type": "Feature", "geometry": {"type": "Point", "coordinates": [8.867137328236929, 45.99024549310395]}, "properties": {"index": 192, "id": "WeAVNpu3qVHvRFu_FHL9YA", "date": "2022-10", "route_dist_m": 1961.3}}, {"type": "Feature", "geometry": {"type": "Point", "coordinates": [8.867124960499721, 45.99037904808641]}, "properties": {"index": 193, "id": "yhqhB5e0QnRk3mEhTBsvUg", "date": "2022-10", "route_dist_m": 1975.7}}, {"type": "Feature", "geometry": {"type": "Point", "coordinates": [8.867069726887618, 45.99046059503763]}, "properties": {"index": 194, "id": "b1xA732j1-rzLQh4rJvscA", "date": "2022-10", "route_dist_m": 1985.2}}, {"type": "Feature", "geometry": {"type": "Point", "coordinates": [8.866984228305633, 45.99053307997058]}, "properties": {"index": 195, "id": "CbaQQoNUDixq4AlqEgtYcQ", "date": "2022-10", "route_dist_m": 1995.3}}, {"type": "Feature", "geometry": {"type": "Point", "coordinates": [8.866881772542257, 45.99059605107443]}, "properties": {"index": 196, "id": "YHCNAxGudlfkLZ1N3E54rg", "date": "2022-10", "route_dist_m": 2005.8}}, {"type": "Feature", "geometry": {"type": "Point", "coordinates": [8.866776500114094, 45.99065660599054]}, "properties": {"index": 197, "id": "G_gqqo0XZrulLMMDRUW1lw", "date": "2022-10", "route_dist_m": 2016.3}}, {"type": "Feature", "geometry": {"type": "Point", "coordinates": [8.866675955879177, 45.99072081909411]}, "properties": {"index": 198, "id": "_0Rmxh0u7XFWki-QmKffQw", "date": "2022-10", "route_dist_m": 2027.0}}, {"type": "Feature", "geometry": {"type": "Point", "coordinates": [8.866583780004875, 45.99078972451829]}, "properties": {"index": 199, "id": "Z_TkSbO-_UGIc9KJkEHaxQ", "date": "2022-10", "route_dist_m": 2037.6}}, {"type": "Feature", "geometry": {"type": "Point", "coordinates": [8.866500682934191, 45.99086129012157]}, "properties": {"index": 200, "id": "mM1yeNMGeBkgdDP2rVcrRA", "date": "2022-10", "route_dist_m": 2048.0}}, {"type": "Feature", "geometry": {"type": "Point", "coordinates": [8.866428425487179, 45.99093340187483]}, "properties": {"index": 201, "id": "5s4Z6C2ud_Hxa1xPhp1Q_A", "date": "2022-10", "route_dist_m": 2057.7}}, {"type": "Feature", "geometry": {"type": "Point", "coordinates": [8.86635959521977, 45.99100758940545]}, "properties": {"index": 202, "id": "QMe-pWdAmgo_tlGQkOI_Ew", "date": "2022-10", "route_dist_m": 2067.6}}, {"type": "Feature", "geometry": {"type": "Point", "coordinates": [8.86629275901764, 45.99108213406055]}, "properties": {"index": 203, "id": "OMpJ-03ZonGZWrA0jDhjWQ", "date": "2022-10", "route_dist_m": 2077.3}}, {"type": "Feature", "geometry": {"type": "Point", "coordinates": [8.866232094317612, 45.99116007812243]}, "properties": {"index": 204, "id": "cVschJVtQD6TiszoXcOiHw", "date": "2022-10", "route_dist_m": 2087.2}}, {"type": "Feature", "geometry": {"type": "Point", "coordinates": [8.866169157006732, 45.99123505114552]}, "properties": {"index": 205, "id": "2uHb9_AjSBqhyEZ0WgUcgA", "date": "2022-10", "route_dist_m": 2096.8}}, {"type": "Feature", "geometry": {"type": "Point", "coordinates": [8.866106717230847, 45.99131276764293]}, "properties": {"index": 206, "id": "7bgkqS7u4c8aYrBj4O5tzA", "date": "2022-10", "route_dist_m": 2106.7}}, {"type": "Feature", "geometry": {"type": "Point", "coordinates": [8.86604249744018, 45.99138937829676]}, "properties": {"index": 207, "id": "9USBqqPLaBQSHK3E9-OPFg", "date": "2022-10", "route_dist_m": 2116.5}}, {"type": "Feature", "geometry": {"type": "Point", "coordinates": [8.86597864124931, 45.99146456957842]}, "properties": {"index": 208, "id": "lSHR8CqYHeWZHB-GZ34Jyw", "date": "2022-10", "route_dist_m": 2126.2}}, {"type": "Feature", "geometry": {"type": "Point", "coordinates": [8.8658624491597, 45.99156741582618]}, "properties": {"index": 209, "id": "UPx6xXB9Z3RlW-vGnHNv6Q", "date": "2022-10", "route_dist_m": 2140.3}}, {"type": "Feature", "geometry": {"type": "Point", "coordinates": [8.86576005689943, 45.99162313363769]}, "properties": {"index": 210, "id": "H03_ezdYfs_OhgeoOBU_1g", "date": "2022-10", "route_dist_m": 2150.2}}, {"type": "Feature", "geometry": {"type": "Point", "coordinates": [8.865650560828454, 45.99166959415349]}, "properties": {"index": 211, "id": "UVTm5MOpm2qBpkssSslELw", "date": "2022-10", "route_dist_m": 2160.1}}, {"type": "Feature", "geometry": {"type": "Point", "coordinates": [8.865543851878893, 45.9917134944395]}, "properties": {"index": 212, "id": "Wog6wYtJhMuI6q2WPygK6g", "date": "2022-10", "route_dist_m": 2169.7}}, {"type": "Feature", "geometry": {"type": "Point", "coordinates": [8.86543786194017, 45.99176056011809]}, "properties": {"index": 213, "id": "uVJbU-i6F7IXlTKJ32EFgA", "date": "2022-10", "route_dist_m": 2179.5}}, {"type": "Feature", "geometry": {"type": "Point", "coordinates": [8.865334355283336, 45.99181299660801]}, "properties": {"index": 214, "id": "M86A7mvbkQIAF5TXLgShng", "date": "2022-10", "route_dist_m": 2189.4}}, {"type": "Feature", "geometry": {"type": "Point", "coordinates": [8.865238073915783, 45.99186933609334]}, "properties": {"index": 215, "id": "gn7FzW-IzWJj5OYcvWIw-w", "date": "2022-10", "route_dist_m": 2199.4}}, {"type": "Feature", "geometry": {"type": "Point", "coordinates": [8.86515757848724, 45.99193345080688]}, "properties": {"index": 216, "id": "EdkMg6RMA5mx6NsyJwqCRw", "date": "2022-10", "route_dist_m": 2209.2}}, {"type": "Feature", "geometry": {"type": "Point", "coordinates": [8.865112884020476, 45.99201000426096]}, "properties": {"index": 217, "id": "rzboLD_dAvkRKvHo8GUZKw", "date": "2022-10", "route_dist_m": 2220.0}}, {"type": "Feature", "geometry": {"type": "Point", "coordinates": [8.865141050196788, 45.99209449739531]}, "properties": {"index": 218, "id": "H_6WLNxCaDpN_IkY09pUag", "date": "2022-10", "route_dist_m": 2231.6}}, {"type": "Feature", "geometry": {"type": "Point", "coordinates": [8.865232923312456, 45.99216392144768]}, "properties": {"index": 219, "id": "aft1xgjoZwG6clrV1mjR1g", "date": "2022-10", "route_dist_m": 2243.0}}, {"type": "Feature", "geometry": {"type": "Point", "coordinates": [8.865351226234246, 45.99221173668148]}, "properties": {"index": 220, "id": "hS3EEY1Icfqf6jgWJltfRQ", "date": "2022-10", "route_dist_m": 2253.8}}, {"type": "Feature", "geometry": {"type": "Point", "coordinates": [8.865481339635323, 45.99223878954411]}, "properties": {"index": 221, "id": "m_u3CLRbb3rA9agcgegPMg", "date": "2022-10", "route_dist_m": 2264.3}}, {"type": "Feature", "geometry": {"type": "Point", "coordinates": [8.865602722736606, 45.99225912784719]}, "properties": {"index": 222, "id": "aWjHc3Dj71VZDUSZ9hFpsA", "date": "2022-10", "route_dist_m": 2274.0}}, {"type": "Feature", "geometry": {"type": "Point", "coordinates": [8.865760177836547, 45.9923154594178]}, "properties": {"index": 223, "id": "OMxFuPMDdXvHf1rhbI_0AQ", "date": "2022-10", "route_dist_m": 2287.3}}, {"type": "Feature", "geometry": {"type": "Point", "coordinates": [8.865828378989022, 45.99239090190265]}, "properties": {"index": 224, "id": "ymF_MWomM_Yn2w3qtUkkUw", "date": "2022-10", "route_dist_m": 2296.8}}, {"type": "Feature", "geometry": {"type": "Point", "coordinates": [8.865846100349032, 45.99248214038013]}, "properties": {"index": 225, "id": "m1D1QuaoXcZaCoMXR4e4Gg", "date": "2022-10", "route_dist_m": 2306.5}}, {"type": "Feature", "geometry": {"type": "Point", "coordinates": [8.865832401133202, 45.9925726797856]}, "properties": {"index": 226, "id": "tKxFF9RxUGk7Y0tkW3ZzxQ", "date": "2022-10", "route_dist_m": 2316.4}}, {"type": "Feature", "geometry": {"type": "Point", "coordinates": [8.86580886386277, 45.99266186287807]}, "properties": {"index": 227, "id": "EQmPGvi0rTyjdEhmqN-EDQ", "date": "2022-10", "route_dist_m": 2326.3}}, {"type": "Feature", "geometry": {"type": "Point", "coordinates": [8.8657798719743, 45.99275051945499]}, "properties": {"index": 228, "id": "nI3ow7jpOAK6T_japAzSKQ", "date": "2022-10", "route_dist_m": 2336.2}}, {"type": "Feature", "geometry": {"type": "Point", "coordinates": [8.865738350724522, 45.99283810267914]}, "properties": {"index": 229, "id": "1Px0oUEZ-0sR_GWCJaRq1A", "date": "2022-10", "route_dist_m": 2346.4}}, {"type": "Feature", "geometry": {"type": "Point", "coordinates": [8.865693556227626, 45.99292381784592]}, "properties": {"index": 230, "id": "zMrOoZyixUHYnUb_4zXDKA", "date": "2022-10", "route_dist_m": 2356.4}}, {"type": "Feature", "geometry": {"type": "Point", "coordinates": [8.865647554939317, 45.99300911467015]}, "properties": {"index": 231, "id": "Gf01el5qWQCaQARVSnbpcQ", "date": "2022-10", "route_dist_m": 2366.5}}, {"type": "Feature", "geometry": {"type": "Point", "coordinates": [8.865597911360942, 45.99309681883392]}, "properties": {"index": 232, "id": "Y42yyUcboqefr8EiTBbrMA", "date": "2022-10", "route_dist_m": 2376.9}}, {"type": "Feature", "geometry": {"type": "Point", "coordinates": [8.86554320777926, 45.99318411211136]}, "properties": {"index": 233, "id": "io-jsmt5RlaHJhELvR83Vw", "date": "2022-10", "route_dist_m": 2387.4}}, {"type": "Feature", "geometry": {"type": "Point", "coordinates": [8.865487824279107, 45.99327123884363]}, "properties": {"index": 234, "id": "QlTXRLj7gQZa8vVFxotuFw", "date": "2022-10", "route_dist_m": 2397.9}}, {"type": "Feature", "geometry": {"type": "Point", "coordinates": [8.86543450185696, 45.99335893723119]}, "properties": {"index": 235, "id": "lCWmxsuRTTglXj5J-1v1zA", "date": "2022-10", "route_dist_m": 2408.5}}, {"type": "Feature", "geometry": {"type": "Point", "coordinates": [8.865382469887228, 45.99344646193892]}, "properties": {"index": 236, "id": "yHc7c2HbfT18c6wJENUjIA", "date": "2022-10", "route_dist_m": 2418.9}}, {"type": "Feature", "geometry": {"type": "Point", "coordinates": [8.865332976166014, 45.99353378893252]}, "properties": {"index": 237, "id": "N3jOBVqnHovenOYgR7ZZXw", "date": "2022-10", "route_dist_m": 2429.3}}, {"type": "Feature", "geometry": {"type": "Point", "coordinates": [8.865283725930228, 45.9936216096034]}, "properties": {"index": 238, "id": "G_hFTwmwWdQBO2dix9o3lQ", "date": "2022-10", "route_dist_m": 2439.8}}, {"type": "Feature", "geometry": {"type": "Point", "coordinates": [8.865235144868546, 45.99370784064213]}, "properties": {"index": 239, "id": "VCuaCDyCebC65JhInw5E1g", "date": "2022-10", "route_dist_m": 2450.1}}, {"type": "Feature", "geometry": {"type": "Point", "coordinates": [8.865187499018356, 45.99379304706041]}, "properties": {"index": 240, "id": "DnDK9VMDN8R-zbxzxZoniA", "date": "2022-10", "route_dist_m": 2460.2}}, {"type": "Feature", "geometry": {"type": "Point", "coordinates": [8.865143211917374, 45.9938760881145]}, "properties": {"index": 241, "id": "NglUOQHpe8O_aLA1pKSKdA", "date": "2022-10", "route_dist_m": 2470.0}}, {"type": "Feature", "geometry": {"type": "Point", "coordinates": [8.865101854470169, 45.99395846163109]}, "properties": {"index": 242, "id": "M8at_CsjpMyHjU_UGgmz8Q", "date": "2022-10", "route_dist_m": 2479.7}}, {"type": "Feature", "geometry": {"type": "Point", "coordinates": [8.865069269150926, 45.99404337323485]}, "properties": {"index": 243, "id": "lIDRCQdLqe8Z3LYHdWp4pw", "date": "2022-10", "route_dist_m": 2489.7}}, {"type": "Feature", "geometry": {"type": "Point", "coordinates": [8.865050246419528, 45.99413008349044]}, "properties": {"index": 244, "id": "B5ZqtllPHD88y_qNr03-8g", "date": "2022-10", "route_dist_m": 2499.6}}, {"type": "Feature", "geometry": {"type": "Point", "coordinates": [8.86504338408513, 45.99421840882555]}, "properties": {"index": 245, "id": "31dsWQBNos2MzJ9g-xl6AA", "date": "2022-10", "route_dist_m": 2509.5}}, {"type": "Feature", "geometry": {"type": "Point", "coordinates": [8.865036389539625, 45.9943065981846]}, "properties": {"index": 246, "id": "g2jp4iQYiFVPuKRUDqa86g", "date": "2022-10", "route_dist_m": 2519.2}}, {"type": "Feature", "geometry": {"type": "Point", "coordinates": [8.865017874567853, 45.9943940747425]}, "properties": {"index": 247, "id": "qL8_NDnxnEL7T94MYVCxnA", "date": "2022-10", "route_dist_m": 2528.8}}, {"type": "Feature", "geometry": {"type": "Point", "coordinates": [8.864984876632649, 45.99447967819439]}, "properties": {"index": 248, "id": "ylje-xGJaU_4mfpmsWvFcw", "date": "2022-10", "route_dist_m": 2538.2}}, {"type": "Feature", "geometry": {"type": "Point", "coordinates": [8.86493885804286, 45.99456263555987]}, "properties": {"index": 249, "id": "P1f9YqhDkxbQg4QSR1Ka-Q", "date": "2022-10", "route_dist_m": 2547.9}}, {"type": "Feature", "geometry": {"type": "Point", "coordinates": [8.864885431321868, 45.9946442666724]}, "properties": {"index": 250, "id": "7q3us6dEdYrW9kObzIIcjA", "date": "2022-10", "route_dist_m": 2557.8}}, {"type": "Feature", "geometry": {"type": "Point", "coordinates": [8.864830638169707, 45.99472439352554]}, "properties": {"index": 251, "id": "FtKWXYPeM6bmPYKgKUA1ng", "date": "2022-10", "route_dist_m": 2567.6}}, {"type": "Feature", "geometry": {"type": "Point", "coordinates": [8.864776031937192, 45.99480282182704]}, "properties": {"index": 252, "id": "J-SO8KmYxtcfyS2Vo_Bp3w", "date": "2022-10", "route_dist_m": 2577.3}}, {"type": "Feature", "geometry": {"type": "Point", "coordinates": [8.864720924286038, 45.99488165539769]}, "properties": {"index": 253, "id": "ioNudawxAty1DLMFNjAr3A", "date": "2022-10", "route_dist_m": 2587.0}}, {"type": "Feature", "geometry": {"type": "Point", "coordinates": [8.864661060289016, 45.99495961498609]}, "properties": {"index": 254, "id": "t94BJQjz-UZb4IkqJ79dzw", "date": "2022-10", "route_dist_m": 2596.6}}, {"type": "Feature", "geometry": {"type": "Point", "coordinates": [8.86459279947268, 45.9950356663185]}, "properties": {"index": 255, "id": "SHV5RK153VllGi5K6-McKg", "date": "2022-10", "route_dist_m": 2606.3}}, {"type": "Feature", "geometry": {"type": "Point", "coordinates": [8.86451388661339, 45.9951060311857]}, "properties": {"index": 256, "id": "dW77nscmUKBbejPZ2yniRQ", "date": "2022-10", "route_dist_m": 2616.0}}, {"type": "Feature", "geometry": {"type": "Point", "coordinates": [8.864429773047089, 45.99517065080684]}, "properties": {"index": 257, "id": "9wmr2-n7KhLdDzbxhK6GMw", "date": "2022-10", "route_dist_m": 2625.5}}, {"type": "Feature", "geometry": {"type": "Point", "coordinates": [8.864331152450909, 45.99522929853202]}, "properties": {"index": 258, "id": "MNScqQa_L4xmW5Lr9EbRcQ", "date": "2022-10", "route_dist_m": 2635.3}}, {"type": "Feature", "geometry": {"type": "Point", "coordinates": [8.864224107858874, 45.99528135380069]}, "properties": {"index": 259, "id": "ghV8F-RHKYAqBpj5Wrh-nw", "date": "2022-10", "route_dist_m": 2645.1}}, {"type": "Feature", "geometry": {"type": "Point", "coordinates": [8.864110870689142, 45.9953264962318]}, "properties": {"index": 260, "id": "SBYRgAsf8sXXuER4pqaD1w", "date": "2022-10", "route_dist_m": 2655.0}}, {"type": "Feature", "geometry": {"type": "Point", "coordinates": [8.86399498011682, 45.99536715917917]}, "properties": {"index": 261, "id": "nFM-eXd5v823OGh3krpGHw", "date": "2022-10", "route_dist_m": 2665.1}}, {"type": "Feature", "geometry": {"type": "Point", "coordinates": [8.863878469934786, 45.99540669876759]}, "properties": {"index": 262, "id": "2TxjtzLjMP7Bvau98tIV4A", "date": "2022-10", "route_dist_m": 2675.1}}, {"type": "Feature", "geometry": {"type": "Point", "coordinates": [8.863763332896813, 45.99544517936844]}, "properties": {"index": 263, "id": "uJffloFnM-5BeJ-tv84u8A", "date": "2022-10", "route_dist_m": 2684.9}}, {"type": "Feature", "geometry": {"type": "Point", "coordinates": [8.863651448262035, 45.9954857495124]}, "properties": {"index": 264, "id": "InyLt0lJ6kMtF3G0yV22tg", "date": "2022-10", "route_dist_m": 2694.6}}, {"type": "Feature", "geometry": {"type": "Point", "coordinates": [8.863548371535598, 45.99553500557874]}, "properties": {"index": 265, "id": "YwQf43wRudPawqYuz6MIUA", "date": "2022-10", "route_dist_m": 2705.0}}, {"type": "Feature", "geometry": {"type": "Point", "coordinates": [8.863455084182382, 45.99559609289175]}, "properties": {"index": 266, "id": "xo_9Nl78NXC8FBqV5Yswyg", "date": "2022-10", "route_dist_m": 2715.4}}, {"type": "Feature", "geometry": {"type": "Point", "coordinates": [8.86337629955388, 45.99566630113923]}, "properties": {"index": 267, "id": "G_9hesjc06GxsdKRVUcVPw", "date": "2022-10", "route_dist_m": 2725.6}}, {"type": "Feature", "geometry": {"type": "Point", "coordinates": [8.863307670124694, 45.9957434796185]}, "properties": {"index": 268, "id": "EEdcOXLUwcwRIZnxfIn8Cw", "date": "2022-10", "route_dist_m": 2735.8}}, {"type": "Feature", "geometry": {"type": "Point", "coordinates": [8.863239107372998, 45.99582087263238]}, "properties": {"index": 269, "id": "0Ucv2eMFBNkHC6CcO4Ljvg", "date": "2022-10", "route_dist_m": 2745.9}}, {"type": "Feature", "geometry": {"type": "Point", "coordinates": [8.863163478148635, 45.99589544812269]}, "properties": {"index": 270, "id": "syrrKpuFRXnc7wKPEFNjIw", "date": "2022-10", "route_dist_m": 2755.7}}, {"type": "Feature", "geometry": {"type": "Point", "coordinates": [8.863075856669077, 45.99596348943577]}, "properties": {"index": 271, "id": "XutPvRcCCqUBsrvmJXOWKw", "date": "2022-10", "route_dist_m": 2765.7}}, {"type": "Feature", "geometry": {"type": "Point", "coordinates": [8.862978012644636, 45.99602434606321]}, "properties": {"index": 272, "id": "MrqtR_klyfwQ3wlatCXm0w", "date": "2022-10", "route_dist_m": 2775.4}}, {"type": "Feature", "geometry": {"type": "Point", "coordinates": [8.862875594502405, 45.99608175150877]}, "properties": {"index": 273, "id": "gJe-v8X5QfZYjhLmZmUUMQ", "date": "2022-10", "route_dist_m": 2785.6}}, {"type": "Feature", "geometry": {"type": "Point", "coordinates": [8.862771461601504, 45.99613797251649]}, "properties": {"index": 274, "id": "0efFuwYEoNZlgo_O5EU2Fg", "date": "2022-10", "route_dist_m": 2795.7}}, {"type": "Feature", "geometry": {"type": "Point", "coordinates": [8.862668506068985, 45.99619336951196]}, "properties": {"index": 275, "id": "pvMN1G7L1hYDujZB7wcMmg", "date": "2022-10", "route_dist_m": 2805.8}}, {"type": "Feature", "geometry": {"type": "Point", "coordinates": [8.86256810451994, 45.99624746912276]}, "properties": {"index": 276, "id": "owGBNEdc8LjlDXmN_8NDWQ", "date": "2022-10", "route_dist_m": 2815.6}}, {"type": "Feature", "geometry": {"type": "Point", "coordinates": [8.862468883729106, 45.99630133024263]}, "properties": {"index": 277, "id": "a3gW3idH-bsHC28rypVi0w", "date": "2022-10", "route_dist_m": 2825.3}}, {"type": "Feature", "geometry": {"type": "Point", "coordinates": [8.862370230935218, 45.99635500061719]}, "properties": {"index": 278, "id": "Znj948jMecF-XtnVnmzaIg", "date": "2022-10", "route_dist_m": 2835.0}}, {"type": "Feature", "geometry": {"type": "Point", "coordinates": [8.862273716763166, 45.99640747920095]}, "properties": {"index": 279, "id": "K1og05ef0kse7wKFWcxDTw", "date": "2022-10", "route_dist_m": 2844.4}}, {"type": "Feature", "geometry": {"type": "Point", "coordinates": [8.862177187291351, 45.99645732291108]}, "properties": {"index": 280, "id": "qRHtq9h1Z00vSPUZMbuOzw", "date": "2022-10", "route_dist_m": 2853.6}}, {"type": "Feature", "geometry": {"type": "Point", "coordinates": [8.86206783892608, 45.99649769443711]}, "properties": {"index": 281, "id": "DckeR1wYBJm8t26evgUn5w", "date": "2022-10", "route_dist_m": 2862.6}}, {"type": "Feature", "geometry": {"type": "Point", "coordinates": [8.861943201001496, 45.9965215371399]}, "properties": {"index": 282, "id": "QOTlWSGKcFCe5CbhXWidng", "date": "2022-10", "route_dist_m": 2872.5}}, {"type": "Feature", "geometry": {"type": "Point", "coordinates": [8.861811735401282, 45.99653068127358]}, "properties": {"index": 283, "id": "YIXQ8O9cX097RysH4p36LQ", "date": "2022-10", "route_dist_m": 2882.3}}, {"type": "Feature", "geometry": {"type": "Point", "coordinates": [8.861678858144307, 45.99653415062063]}, "properties": {"index": 284, "id": "xIxnm05EFYVWqL1-H9SsQA", "date": "2022-10", "route_dist_m": 2892.5}}, {"type": "Feature", "geometry": {"type": "Point", "coordinates": [8.861546292707795, 45.99653085901004]}, "properties": {"index": 285, "id": "vR-CoLcD-eryzdmpi09Grg", "date": "2022-10", "route_dist_m": 2902.6}}, {"type": "Feature", "geometry": {"type": "Point", "coordinates": [8.861346135638605, 45.99651899388315]}, "properties": {"index": 286, "id": "69jAMeaW4pRwz1u9OX_1BQ", "date": "2022-10", "route_dist_m": 2918.2}}, {"type": "Feature", "geometry": {"type": "Point", "coordinates": [8.86121727542279, 45.99651263077119]}, "properties": {"index": 287, "id": "vJjnnTfdGjnh9Lu0pCHxsg", "date": "2022-10", "route_dist_m": 2928.2}}, {"type": "Feature", "geometry": {"type": "Point", "coordinates": [8.861091250720282, 45.99650817008362]}, "properties": {"index": 288, "id": "sv2MVZH1EoKPdJE65UqONQ", "date": "2022-10", "route_dist_m": 2938.0}}, {"type": "Feature", "geometry": {"type": "Point", "coordinates": [8.860966786359917, 45.99650468604707]}, "properties": {"index": 289, "id": "1GZGyOeCrTAIT3f06HgKXQ", "date": "2022-10", "route_dist_m": 2947.7}}, {"type": "Feature", "geometry": {"type": "Point", "coordinates": [8.860845198705402, 45.99650266190233]}, "properties": {"index": 290, "id": "UdLkCUWrHd1utDWu8EbCRA", "date": "2022-10", "route_dist_m": 2957.1}}, {"type": "Feature", "geometry": {"type": "Point", "coordinates": [8.860723344209301, 45.99650754135507]}, "properties": {"index": 291, "id": "SKnrB-VJrXAszzhF4foYnw", "date": "2022-10", "route_dist_m": 2966.8}}, {"type": "Feature", "geometry": {"type": "Point", "coordinates": [8.860601077196494, 45.99652834215182]}, "properties": {"index": 292, "id": "GPQsOUA0rtcJC-FL7tEdsw", "date": "2022-10", "route_dist_m": 2977.0}}, {"type": "Feature", "geometry": {"type": "Point", "coordinates": [8.860483796797478, 45.9965674261907]}, "properties": {"index": 293, "id": "ePuhGhkqxQnAVQ6Sgl9_4w", "date": "2022-10", "route_dist_m": 2987.4}}, {"type": "Feature", "geometry": {"type": "Point", "coordinates": [8.860366124948749, 45.99660697995436]}, "properties": {"index": 294, "id": "K_CkYa5_WYnvuDd2D4yabQ", "date": "2022-10", "route_dist_m": 2997.4}}, {"type": "Feature", "geometry": {"type": "Point", "coordinates": [8.860244946856927, 45.99663443206081]}, "properties": {"index": 295, "id": "N4LYOaLrtg6T1It9PNDX6Q", "date": "2022-10", "route_dist_m": 3006.8}}, {"type": "Feature", "geometry": {"type": "Point", "coordinates": [8.860123433933863, 45.99665305015019]}, "properties": {"index": 296, "id": "QeylV6SforQMlqHbsXiAPg", "date": "2022-10", "route_dist_m": 3016.4}}, {"type": "Feature", "geometry": {"type": "Point", "coordinates": [8.860004090889042, 45.99667977328195]}, "properties": {"index": 297, "id": "C0ibpVhd4P5qGi7TFkNNGg", "date": "2022-10", "route_dist_m": 3026.5}}, {"type": "Feature", "geometry": {"type": "Point", "coordinates": [8.859900928926656, 45.99672991205819]}, "properties": {"index": 298, "id": "BTHp8I3tNxEwPvYTvSlZwA", "date": "2022-10", "route_dist_m": 3037.9}}, {"type": "Feature", "geometry": {"type": "Point", "coordinates": [8.85983875196323, 45.99680709952754]}, "properties": {"index": 299, "id": "T3KV5a5fcAaCeuJLk1QMwQ", "date": "2022-10", "route_dist_m": 3049.4}}, {"type": "Feature", "geometry": {"type": "Point", "coordinates": [8.859816436384063, 45.99689853612132]}, "properties": {"index": 300, "id": "3b3g0FNkur1_esBAOv_mIA", "date": "2022-10", "route_dist_m": 3059.8}}, {"type": "Feature", "geometry": {"type": "Point", "coordinates": [8.85979716712123, 45.99699054105308]}, "properties": {"index": 301, "id": "GBWt-ljKMDUIVCpmtILemQ", "date": "2022-10", "route_dist_m": 3070.1}}, {"type": "Feature", "geometry": {"type": "Point", "coordinates": [8.85976320966629, 45.99707915037201]}, "properties": {"index": 302, "id": "7RX0YaJex1l-xvkzs8aCPA", "date": "2022-10", "route_dist_m": 3079.9}}, {"type": "Feature", "geometry": {"type": "Point", "coordinates": [8.859732880638319, 45.99716674497633]}, "properties": {"index": 303, "id": "3_x4VUSCLChsLU-mevYaBw", "date": "2022-10", "route_dist_m": 3090.0}}, {"type": "Feature", "geometry": {"type": "Point", "coordinates": [8.859730854006877, 45.99725711444999]}, "properties": {"index": 304, "id": "fvK5EQhemSvdYAPEXTwCvg", "date": "2022-10", "route_dist_m": 3101.2}}, {"type": "Feature", "geometry": {"type": "Point", "coordinates": [8.859788854394587, 45.99738498552907]}, "properties": {"index": 305, "id": "lmnVRZHqx9kHy881AE7Qww", "date": "2022-10", "route_dist_m": 3116.6}}, {"type": "Feature", "geometry": {"type": "Point", "coordinates": [8.859853189768069, 45.99746015468278]}, "properties": {"index": 306, "id": "sqYGtvqO4RFmAzC7IXYcWQ", "date": "2022-10", "route_dist_m": 3126.5}}, {"type": "Feature", "geometry": {"type": "Point", "coordinates": [8.85990607303889, 45.99753885203689]}, "properties": {"index": 307, "id": "LMDm1Q2my5vHVL-jVzN1zw", "date": "2022-10", "route_dist_m": 3135.8}}, {"type": "Feature", "geometry": {"type": "Point", "coordinates": [8.859936871001965, 45.99766862303603]}, "properties": {"index": 308, "id": "YMZEmXx27U0isXAqJcHGFw", "date": "2022-10", "route_dist_m": 3149.7}}, {"type": "Feature", "geometry": {"type": "Point", "coordinates": [8.85991749725505, 45.99775770860898]}, "properties": {"index": 309, "id": "8eLESZkoQib0nVKnoe-5Ng", "date": "2022-10", "route_dist_m": 3159.4}}, {"type": "Feature", "geometry": {"type": "Point", "coordinates": [8.859874197173387, 45.99784367872889]}, "properties": {"index": 310, "id": "wLG5GoaQnCHfD1kYSObFuw", "date": "2022-10", "route_dist_m": 3169.2}}, {"type": "Feature", "geometry": {"type": "Point", "coordinates": [8.859835761089402, 45.99793029525621]}, "properties": {"index": 311, "id": "U12SP14UjYAVciPNdTom9A", "date": "2022-10", "route_dist_m": 3179.4}}, {"type": "Feature", "geometry": {"type": "Point", "coordinates": [8.859821563324981, 45.99802102840614]}, "properties": {"index": 312, "id": "uIo9dodnOG2p0Kyh_6t-VA", "date": "2022-10", "route_dist_m": 3190.3}}, {"type": "Feature", "geometry": {"type": "Point", "coordinates": [8.859830029037797, 45.99811226640873]}, "properties": {"index": 313, "id": "DnYjK1XFDmXVh23Ae3ncQA", "date": "2022-10", "route_dist_m": 3200.9}}, {"type": "Feature", "geometry": {"type": "Point", "coordinates": [8.85985322766859, 45.99819928155526]}, "properties": {"index": 314, "id": "wQ9cvEnF6Il2om942Ehg_Q", "date": "2022-10", "route_dist_m": 3210.7}}, {"type": "Feature", "geometry": {"type": "Point", "coordinates": [8.859881129574397, 45.99828556438722]}, "properties": {"index": 315, "id": "8Z-x2K55IxGGk06nGa6X_A", "date": "2022-10", "route_dist_m": 3220.5}}, {"type": "Feature", "geometry": {"type": "Point", "coordinates": [8.859911178833848, 45.99837211946612]}, "properties": {"index": 316, "id": "c9LmS1lj66MVbXZBb0MTUA", "date": "2022-10", "route_dist_m": 3230.3}}, {"type": "Feature", "geometry": {"type": "Point", "coordinates": [8.859952272261202, 45.99845642315645]}, "properties": {"index": 317, "id": "Y1cZZPEngZFwkV7jko1Wsw", "date": "2022-10", "route_dist_m": 3240.4}}, {"type": "Feature", "geometry": {"type": "Point", "coordinates": [8.860011288358258, 45.99853523029789]}, "properties": {"index": 318, "id": "osYOVAkEFZF5Y-ZVyleIFQ", "date": "2022-10", "route_dist_m": 3250.7}}, {"type": "Feature", "geometry": {"type": "Point", "coordinates": [8.860088651665421, 45.99860616454382]}, "properties": {"index": 319, "id": "E-xsoTuq-3fHYX9yaowuJA", "date": "2022-10", "route_dist_m": 3260.7}}, {"type": "Feature", "geometry": {"type": "Point", "coordinates": [8.86017522013485, 45.99867096310531]}, "properties": {"index": 320, "id": "QrHHiZweqZKC8hIChjtBbg", "date": "2022-10", "route_dist_m": 3270.6}}, {"type": "Feature", "geometry": {"type": "Point", "coordinates": [8.860255231151125, 45.99874147155524]}, "properties": {"index": 321, "id": "_neWSkS5N2AmqzAxMAkY2Q", "date": "2022-10", "route_dist_m": 3280.4}}, {"type": "Feature", "geometry": {"type": "Point", "coordinates": [8.860312341109973, 45.99882364951008]}, "properties": {"index": 322, "id": "2gHveOrPqV3Ixn3bsQeb_g", "date": "2022-10", "route_dist_m": 3290.1}}, {"type": "Feature", "geometry": {"type": "Point", "coordinates": [8.860345407431186, 45.99891297279817]}, "properties": {"index": 323, "id": "AHi5lUkZ-m6UvyUZojl50A", "date": "2022-10", "route_dist_m": 3300.1}}, {"type": "Feature", "geometry": {"type": "Point", "coordinates": [8.860368016835986, 45.99900384307249]}, "properties": {"index": 324, "id": "6auThTBctIt0PMDeQ8LtEQ", "date": "2022-10", "route_dist_m": 3310.3}}, {"type": "Feature", "geometry": {"type": "Point", "coordinates": [8.86038977156512, 45.99909456041702]}, "properties": {"index": 325, "id": "R_OHipdHY6KtANt0wvA86A", "date": "2022-10", "route_dist_m": 3320.5}}, {"type": "Feature", "geometry": {"type": "Point", "coordinates": [8.860408781948644, 45.99918395394738]}, "properties": {"index": 326, "id": "F5OrQ3svroWTstycsdY_7w", "date": "2022-10", "route_dist_m": 3330.5}}, {"type": "Feature", "geometry": {"type": "Point", "coordinates": [8.860423825697318, 45.99927270468399]}, "properties": {"index": 327, "id": "VIBw6gxMNDyPVJi049MAGg", "date": "2022-10", "route_dist_m": 3340.2}}, {"type": "Feature", "geometry": {"type": "Point", "coordinates": [8.86043269856905, 45.99936208273247]}, "properties": {"index": 328, "id": "Njpw77eD9GnHBrxlg0kyLw", "date": "2022-10", "route_dist_m": 3349.9}}, {"type": "Feature", "geometry": {"type": "Point", "coordinates": [8.860432643737312, 45.99945244929724]}, "properties": {"index": 329, "id": "v58nlOMEAsNL5tJaUGtOeA", "date": "2022-10", "route_dist_m": 3359.9}}, {"type": "Feature", "geometry": {"type": "Point", "coordinates": [8.860427089290713, 45.99954214602339]}, "properties": {"index": 330, "id": "OC5rgI-iyu_5ZSN-lkWroA", "date": "2022-10", "route_dist_m": 3369.8}}, {"type": "Feature", "geometry": {"type": "Point", "coordinates": [8.860426193576144, 45.99963096742255]}, "properties": {"index": 331, "id": "Ck03m83NeUUjirz5zhO5EA", "date": "2022-10", "route_dist_m": 3379.7}}, {"type": "Feature", "geometry": {"type": "Point", "coordinates": [8.860429445681564, 45.99967530965126]}, "properties": {"index": 332, "id": "myf7fO2bTRuIfg8tB7Uyag", "date": "2022-10", "route_dist_m": 3384.8}}, {"type": "Feature", "geometry": {"type": "Point", "coordinates": [8.86043602445639, 45.99971939278446]}, "properties": {"index": 333, "id": "eQkifcUmUaQ_yxxlWGSl4Q", "date": "2022-10", "route_dist_m": 3390.1}}, {"type": "Feature", "geometry": {"type": "Point", "coordinates": [8.860458698713884, 45.99980615880177]}, "properties": {"index": 334, "id": "WMeWIG5jQPAOBSDrY-_psg", "date": "2022-10", "route_dist_m": 3399.8}}, {"type": "Feature", "geometry": {"type": "Point", "coordinates": [8.860479878157127, 45.99989186977322]}, "properties": {"index": 335, "id": "aoPXyHK-jUAzdqDzCRf6kg", "date": "2022-10", "route_dist_m": 3409.2}}, {"type": "Feature", "geometry": {"type": "Point", "coordinates": [8.860483684268342, 45.99997966651438]}, "properties": {"index": 336, "id": "P97PaY-6CZO3k9PaTWQtnA", "date": "2022-10", "route_dist_m": 3418.6}}, {"type": "Feature", "geometry": {"type": "Point", "coordinates": [8.860460906375941, 46.00006704447562]}, "properties": {"index": 337, "id": "o9LsaBxK6ZnVLcbcrnu9sA", "date": "2022-10", "route_dist_m": 3428.1}}, {"type": "Feature", "geometry": {"type": "Point", "coordinates": [8.860412883758851, 46.00015082371414]}, "properties": {"index": 338, "id": "U7g7bMbo9KsveDlnGVQASg", "date": "2022-10", "route_dist_m": 3437.7}}, {"type": "Feature", "geometry": {"type": "Point", "coordinates": [8.860349048869978, 46.0002301961914]}, "properties": {"index": 339, "id": "M8v187bYEkmQRYh7HbO6BQ", "date": "2022-10", "route_dist_m": 3448.3}}, {"type": "Feature", "geometry": {"type": "Point", "coordinates": [8.86028373944793, 46.00030829226418]}, "properties": {"index": 340, "id": "IaEvcNgbth2mxDgGVHe9tg", "date": "2022-10", "route_dist_m": 3458.2}}, {"type": "Feature", "geometry": {"type": "Point", "coordinates": [8.86021937047978, 46.00038624192355]}, "properties": {"index": 341, "id": "5Kb8wkp3jY304jcEQM6E6A", "date": "2022-10", "route_dist_m": 3467.8}}, {"type": "Feature", "geometry": {"type": "Point", "coordinates": [8.860158811993092, 46.00046433421333]}, "properties": {"index": 342, "id": "nO0eJ3T-YN7A11Br0bzO3Q", "date": "2022-10", "route_dist_m": 3478.1}}, {"type": "Feature", "geometry": {"type": "Point", "coordinates": [8.860104569860168, 46.00054427789964]}, "properties": {"index": 343, "id": "U04UoFQw7v4f0Kyrh6ycvg", "date": "2022-10", "route_dist_m": 3488.1}}, {"type": "Feature", "geometry": {"type": "Point", "coordinates": [8.860058611382104, 46.00062548038953]}, "properties": {"index": 344, "id": "UHEl4ScAmi3sfh6WHpDnNQ", "date": "2022-10", "route_dist_m": 3497.9}}, {"type": "Feature", "geometry": {"type": "Point", "coordinates": [8.860014067429042, 46.00070518145132]}, "properties": {"index": 345, "id": "57XGhUxE9Q8MpHLsHgPuNQ", "date": "2022-10", "route_dist_m": 3507.4}}, {"type": "Feature", "geometry": {"type": "Point", "coordinates": [8.859950276202277, 46.00078096287302]}, "properties": {"index": 346, "id": "Np4OsVvrl0xvn9cy_WtRRg", "date": "2022-10", "route_dist_m": 3516.6}}, {"type": "Feature", "geometry": {"type": "Point", "coordinates": [8.859868712653954, 46.00085036637457]}, "properties": {"index": 347, "id": "JYwDoYfKqkotb3A6PU3BNA", "date": "2022-10", "route_dist_m": 3526.1}}, {"type": "Feature", "geometry": {"type": "Point", "coordinates": [8.859791915268405, 46.00092240106154]}, "properties": {"index": 348, "id": "tg5AVJP2WQ7YKZATRdQiHQ", "date": "2022-10", "route_dist_m": 3536.7}}, {"type": "Feature", "geometry": {"type": "Point", "coordinates": [8.859730134519666, 46.00100146783637]}, "properties": {"index": 349, "id": "CYvzaqaR1r_LL3W3r3pRMw", "date": "2022-10", "route_dist_m": 3547.5}}, {"type": "Feature", "geometry": {"type": "Point", "coordinates": [8.859679052442898, 46.0010829234751]}, "properties": {"index": 350, "id": "B26xfJ4A-InFnjZ0tg83ww", "date": "2022-10", "route_dist_m": 3557.3}}, {"type": "Feature", "geometry": {"type": "Point", "coordinates": [8.859634367682727, 46.0011650526064]}, "properties": {"index": 351, "id": "r59-yDYm2uB_5d5GceXUiQ", "date": "2022-10", "route_dist_m": 3567.0}}, {"type": "Feature", "geometry": {"type": "Point", "coordinates": [8.859595317965663, 46.00124857368518]}, "properties": {"index": 352, "id": "HKFzS3F7l7yvBbnfvUCJRw", "date": "2022-10", "route_dist_m": 3576.6}}, {"type": "Feature", "geometry": {"type": "Point", "coordinates": [8.859560164731748, 46.00133193785186]}, "properties": {"index": 353, "id": "EwQ2dncDWexnwEbLrNWbfA", "date": "2022-10", "route_dist_m": 3586.4}}, {"type": "Feature", "geometry": {"type": "Point", "coordinates": [8.859414851211065, 46.00139993607294]}, "properties": {"index": 354, "id": "1nGOCgNZuoQHOGXZFZC9XA", "date": "2022-10", "route_dist_m": 3595.6}}, {"type": "Feature", "geometry": {"type": "Point", "coordinates": [8.859497048253075, 46.00145761025426]}, "properties": {"index": 355, "id": "9y60GOL0gkU9y72SY21a1w", "date": "2022-10", "route_dist_m": 3601.2}}, {"type": "Feature", "geometry": {"type": "Point", "coordinates": [8.859488980021947, 46.0015099391826]}, "properties": {"index": 356, "id": "qZ_m0Z6KPxc-DLtFE-W-CA", "date": "2022-10", "route_dist_m": 3607.0}}, {"type": "Feature", "geometry": {"type": "Point", "coordinates": [8.859471123725859, 46.00160477182778]}, "properties": {"index": 357, "id": "Mi1t1Vz6t4ksJYooRr88lQ", "date": "2022-10", "route_dist_m": 3617.8}}, {"type": "Feature", "geometry": {"type": "Point", "coordinates": [8.859476441841855, 46.00169714057019]}, "properties": {"index": 358, "id": "0l8vhC-2OMOZTKNgQP8oTg", "date": "2022-10", "route_dist_m": 3628.3}}, {"type": "Feature", "geometry": {"type": "Point", "coordinates": [8.859523597057015, 46.00178046565281]}, "properties": {"index": 359, "id": "8rlb24nJAyO8BDiulEV7eA", "date": "2022-10", "route_dist_m": 3639.9}}, {"type": "Feature", "geometry": {"type": "Point", "coordinates": [8.859612829008784, 46.00184286494536]}, "properties": {"index": 360, "id": "eXaYNpQXj8c4j12FTCMA6w", "date": "2022-10", "route_dist_m": 3650.2}}, {"type": "Feature", "geometry": {"type": "Point", "coordinates": [8.85973461708469, 46.00186962813385]}, "properties": {"index": 361, "id": "PJUhTLJaf5TZofv8SMZ0Rw", "date": "2022-10", "route_dist_m": 3660.8}}, {"type": "Feature", "geometry": {"type": "Point", "coordinates": [8.859864791116516, 46.00186146599584]}, "properties": {"index": 362, "id": "EGk2PnjXeq4u_lFaHknr2g", "date": "2022-10", "route_dist_m": 3671.3}}, {"type": "Feature", "geometry": {"type": "Point", "coordinates": [8.859984312359554, 46.00182432855044]}, "properties": {"index": 363, "id": "ivmJgzTg9SsjEAZuF9CA4w", "date": "2022-10", "route_dist_m": 3681.6}}, {"type": "Feature", "geometry": {"type": "Point", "coordinates": [8.860098256499471, 46.00177678726793]}, "properties": {"index": 364, "id": "HDiSDtoxe-E8MScZR_Tfqw", "date": "2022-10", "route_dist_m": 3691.9}}, {"type": "Feature", "geometry": {"type": "Point", "coordinates": [8.86021038597768, 46.00172975340507]}, "properties": {"index": 365, "id": "25yWt1DWFHjJ8ufhkIVFfg", "date": "2022-10", "route_dist_m": 3696.9}}]}